{
    "links": {
        "self": "http://www.neowsapp.com/rest/v1/neo/3542518?api_key=iIulBulltgU6a56xZRHN4H3l9WmuAYTsLGpBGhQ2"
    },
    "id": "3542518",
    "neo_reference_id": "3542518",
    "name": "(2010 PJ9)",
    "designation": "2010 PJ9",
    "nasa_jpl_url": "http://ssd.jpl.nasa.gov/sbdb.cgi?sstr=3542518",
    "absolute_magnitude_h": 24.8,
    "estimated_diameter": {
        "kilometers": {
            "estimated_diameter_min": 0.0291443905,
            "estimated_diameter_max": 0.0651688382
        },
        "meters": {
            "estimated_diameter_min": 29.1443904535,
            "estimated_diameter_max": 65.1688382168
        },
        "miles": {
            "estimated_diameter_min": 0.018109479,
            "estimated_diameter_max": 0.0404940262
        },
        "feet": {
            "estimated_diameter_min": 95.6180819754,
            "estimated_diameter_max": 213.8085311752
        }
    },
    "is_potentially_hazardous_asteroid": false,
    "close_approach_data": [
        {
            "close_approach_date": "2010-08-09",
            "close_approach_date_full": "2010-Aug-09 19:55",
            "epoch_date_close_approach": 1281383700000,
            "relative_velocity": {
                "kilometers_per_second": "13.1613646224",
                "kilometers_per_hour": "47380.9126406976",
                "miles_per_hour": "29440.6565238824"
            },
            "miss_distance": {
                "astronomical": "0.0072365152",
                "lunar": "2.8150044128",
                "kilometers": "1082567.260142624",
                "miles": "672676.1030472512"
            },
            "orbiting_body": "Earth"
        },
        {
            "close_approach_date": "2010-08-10",
            "close_approach_date_full": "2010-Aug-10 01:20",
            "epoch_date_close_approach": 1281403200000,
            "relative_velocity": {
                "kilometers_per_second": "13.5517320345",
                "kilometers_per_hour": "48786.2353243649",
                "miles_per_hour": "30313.8693880755"
            },
            "miss_distance": {
                "astronomical": "0.0079097372",
                "lunar": "3.0768877708",
                "kilometers": "1183279.837379764",
                "miles": "735255.9966741832"
            },
            "orbiting_body": "Moon"
        },
        {
            "close_approach_date": "2018-12-26",
            "close_approach_date_full": "2018-Dec-26 13:22",
            "epoch_date_close_approach": 1545830520000,
            "relative_velocity": {
                "kilometers_per_second": "24.7345041819",
                "kilometers_per_hour": "89044.2150547331",
                "miles_per_hour": "55328.6124044257"
            },
            "miss_distance": {
                "astronomical": "0.3929998687",
                "lunar": "152.8769489243",
                "kilometers": "58791943.267799669",
                "miles": "36531619.5529026722"
            },
            "orbiting_body": "Earth"
        },
        {
            "close_approach_date": "2089-07-12",
            "close_approach_date_full": "2089-Jul-12 01:45",
            "epoch_date_close_approach": 3771971100000,
            "relative_velocity": {
                "kilometers_per_second": "6.9439693387",
                "kilometers_per_hour": "24998.2896194416",
                "miles_per_hour": "15532.9650138136"
            },
            "miss_distance": {
                "astronomical": "0.1457254397",
                "lunar": "56.6871960433",
                "kilometers": "21800215.383933439",
                "miles": "13546025.7020178982"
            },
            "orbiting_body": "Venus"
        }
    ],
    "orbital_data": {
        "orbit_id": "13",
        "orbit_determination_date": "2017-04-06 08:57:02",
        "first_observation_date": "2010-08-04",
        "last_observation_date": "2010-08-10",
        "data_arc_in_days": 6,
        "observations_used": 99,
        "orbit_uncertainty": "7",
        "minimum_orbit_intersection": ".00330028",
        "jupiter_tisserand_invariant": "3.679",
        "epoch_osculation": "2459000.5",
        "eccentricity": ".566837719612878",
        "semi_major_axis": "1.94769920572194",
        "inclination": "1.149089934026805",
        "ascending_node_longitude": "147.5084423825591",
        "orbital_period": "992.8445532233745",
        "perihelion_distance": ".8436698294587018",
        "perihelion_argument": "228.0323715751355",
        "aphelion_distance": "3.051728581985178",
        "perihelion_time": "2459432.016211628410",
        "mean_anomaly": "203.5345838561728",
        "mean_motion": ".36259452583108",
        "equinox": "J2000",
        "orbit_class": {
            "orbit_class_type": "APO",
            "orbit_class_description": "Near-Earth asteroid orbits which cross the Earth’s orbit similar to that of 1862 Apollo",
            "orbit_class_range": "a (semi-major axis) > 1.0 AU; q (perihelion) < 1.017 AU"
        }
    },
    "is_sentry_object": false
}